#dP2024  3 31  0  0  0.00000000      97 __u+U IGS20 FIT  IAC
## 2308      0.00000000   900.00000000 60400 0.0000000000000
+  120   C06C07C08C09C10C11C12C13C14C16C19C20C21C22C23C24C25
+        C26C27C28C29C30C32C33C34C35C36C37C38C39C40C41C42C43
+        C44C45C46E02E03E04E05E07E08E09E10E11E12E13E14E15E18
+        E19E21E24E25E26E27E30E31E33E34E36G01G02G03G04G05G06
+        G07G08G09G10G11G12G13G14G15G16G17G18G19G20G21G22G23
+        G24G25G26G27G28G29G30G31G32J02J03J04R01R02R03R04R05
+        R07R08R09R11R12R13R14R15R16R17R18R19R20R21R22R24R25
+        R26  0  0  0  0  0  0  0  0  0  0  0  0  0  0  0  0
++         7  7  7  7  7  6  6  7  6  7  5  5  6  6  6  5  5
++         6  6  6  5  5  6  6  5  6  6  6  6  6  6  6  5  5
++         5  6  6  4  4  4  4  4  4  4  4  4  4  4  4  4  4
++         4  4  4  4  4  4  4  4  4  4  4  4  3  3  3  3  3
++         3  3  3  3  3  3  3  3  4  3  4  3  4  3  3  3  3
++         4  3  3  3  4  3  3  3  4 11 11 11  8  7  7  7  7
++         7  7  6  6  6  8  7  7  7  6  7  7  7  6  7  7  8
++         8  0  0  0  0  0  0  0  0  0  0  0  0  0  0  0  0
%c M  cc GPS ccc cccc cccc cccc cccc ccccc ccccc ccccc ccccc
%c cc cc ccc ccc cccc cccc cccc cccc ccccc ccccc ccccc ccccc
%f  1.2500000  1.025000000  0.00000000000  0.000000000000000
%f  0.0000000  0.000000000  0.00000000000  0.000000000000000
%i    0    0    0    0      0      0      0      0         0
%i    0    0    0    0      0      0      0      0         0
/* INFORMATION & ANALYSIS CENTER (IAC)            FINAL DATA
/* S/V CLOCKS ARE ALIGNED TO GNSS TIME                      
/* G:C1WC2W R:C1PC2P E:C1XC5X C:C2IC6I J:C1CC2S             
/* PCV:IGS20_2290 OL/AL:FES2004  NONE     YN ORB:CoN CLK:CoN
*  2024 03 31 21  0  0.00000000
PC06  -3121.695321  25344.357093  33655.274279    312.671318
PC07 -18211.793715  34949.591964 -15191.803031   -863.082840
PC08  -4289.855030  38615.161802 -16120.888540     14.644360
PC09   3585.843885  27830.658190  32108.411678   -698.532008
PC10 -11081.478848  35067.573197 -20762.840264     21.029932
PC11  27751.618793   2529.565606   1517.067640    488.643574
PC12  19035.655758  12825.725073 -15841.182988   -223.718707
PC13   1060.107683  41112.006871  -8447.408584    428.462008
PC14  19353.110001  -4390.157998  19611.615835    536.038024
PC16  -8477.534716  22753.875693  34767.505660   -430.165700
PC19 -20480.137466  13652.267327 -13150.440525   -916.288275
PC20 -16062.708260  -3605.460420 -22522.586708   -313.447109
PC21   1366.815782  20375.591978  19053.610506   -961.919534
PC22 -13454.031919  24085.091738   4320.207192    -54.876431
PC23   5156.349135 -20379.972828 -18354.344985   -775.543195
PC24  18222.981630  16402.335422 -13324.562701    947.107673
PC25  16247.489575  -3545.664159 -22420.095729    363.389185
PC26  10156.166604  25776.843116   3168.229256   -270.738524
PC27 -10347.548823 -15584.148416  20680.941696    292.572962
PC28   8793.050820 -14663.906321  22056.888565    223.449783
PC29 -25804.938787   5063.613000  -9339.367657    262.076432
PC30 -25265.935184  -7769.862443   8895.116408    -47.601546
PC32  -1470.184259 -20383.898647 -18972.411057   -593.151604
PC33  20407.314392 -13628.957206  13273.578998   -964.959311
PC34  26013.614856   6868.581778  -7471.983499    402.308133
PC35  -8428.820670  15027.364601 -21959.985817    397.901925
PC36 -16452.079979   2837.400336  22380.065900     36.786343
PC37  -9360.320902 -26069.028379  -3496.676374   -951.578328
PC38  -8867.241654  34766.750082 -21993.952093    146.191978
PC39 -13902.049850  20201.293035  34347.582474     -7.794175
PC40 -25663.552222  30187.490951 -14823.024701    -63.346132
PC41  13916.843605 -23926.374602  -3406.219442   -915.882195
PC42  15155.299783   5383.174028  22849.865797   -444.525780
PC43  26231.917456  -4457.350624   8441.882370     66.265961
PC44  10783.045207  15359.507197 -20681.447667    430.065264
PC45  -5100.737167  20336.932091  18399.329251    -78.251786
PC46 -18260.732120 -15828.233512  13979.870942   -136.225837
PE02  -8460.687618 -22453.394180  17333.643620    115.755049
PE03 -13636.037489 -12174.741286 -23280.033871   -104.116482
PE04  27249.842047  -2016.757090  11391.839342   -362.804685
PE05   7725.747509 -18995.996021 -21334.535628   4734.294904
PE07 -24916.870459  14583.621128   6568.780403   -112.020513
PE08 -26987.233536   1529.404236 -12071.875541   -247.764483
PE09  24980.214710 -14483.128465  -6467.757601   -390.655866
PE10  21902.858371   1254.367189  19866.610393   -613.614708
PE11  14933.899106  -8059.312284  24244.833121   3104.222209
PE12  24911.659012   9389.335342  12963.616157   -973.528917
PE13 -15367.076035   7508.156121 -24153.894124    -20.791832
PE14  -4477.784930 -15577.197006  19104.002940     82.299550
PE15 -24951.143252  -9818.471876 -12517.646625    -94.442676
PE18  -4970.578189  21492.645129 -22197.280636    499.017917
PE19  11380.088440  13314.097794  23875.842128   -328.217560
PE21  -4087.230567  29303.632183   -840.330916   -586.860149
PE24  15068.612832 -18961.565013 -17052.632049   -682.149284
PE25   4365.956577 -29276.401408    435.360805      2.794693
PE26   3541.038436  20488.743821 -21067.455014    412.612494
PE27 -14840.784716  19300.630593  16823.481198   -312.835114
PE30 -16719.511654  -2228.042353  24308.020554   -151.930580
PE31  16714.736706   1947.491237 -24351.547761    -19.659240
PE33  19431.289313  21276.701219  -6783.700391      9.792882
PE34 -19803.595038 -21086.440952   6266.244117   -103.105827
PE36  -3000.512033 -20133.721047  21483.918068   -207.008414
PG01  22642.642419   9849.955566   9880.122489    177.112296
PG02  22625.660191  14193.806647    380.805926   -461.072587
PG03  12504.585217  10680.990900  20739.847512    284.817137
PG04  20588.107393   4356.058843  16303.545977    328.147195
PG05  -6782.370387 -22446.877646 -12556.643148   -167.462412
PG06   5413.352333 -14054.729850  21927.449267    343.090911
PG07  20747.559783   1246.085464 -16296.759917    -97.030754
PG08  13260.797143  10199.036737 -20820.750887     93.093437
PG09  25066.543097  -7012.981271   5354.042982    144.141600
PG10 -10594.833339  21076.551357 -11670.841172     -4.209021
PG11  -6652.695956 -20129.047688  16053.196091   -623.400494
PG12 -11664.148422 -12587.315340  20002.276217   -492.385022
PG13  -3443.922000 -14690.048360 -22058.346518    638.909376
PG14  13296.293305 -17771.217769 -14414.808005    364.777112
PG15 -14311.776230  -9348.715892 -20861.150710    143.560581
PG16   1063.325680  24793.602853  -9140.326004   -327.896356
PG17  21774.791493 -13337.711782   8016.011658    711.428768
PG18 -19791.779065   -327.578903 -17787.126886   -586.207399
PG19  14902.206019 -15372.937641  15285.999595    461.789899
PG20  -1423.491834 -26605.847744   -282.288638    381.866575
PG21  20597.583857  16847.428077  -4658.000847    129.112601
PG22  10212.847623 -23564.235147  -6918.019784      7.388570
PG23 -14453.167023   9915.205460 -19872.149606    190.054649
PG24 -21469.846463 -15839.140133  -2790.465014   -453.764896
PG25 -15231.714813  -1153.981506  21382.486273    492.701545
PG26  -4166.610555  25725.411344   3823.411780    172.628381
PG27    464.157068  15990.987493 -21418.905115    -15.710943
PG28  -7841.363750  13042.650346  21751.166383   -185.469140
PG29 -25400.238689   3146.306913   7246.333334   -603.271136
PG30  13390.118632  -9154.150486 -20928.906620   -411.859854
PG31   1785.283409  18402.913490  18706.164360   -228.025271
PG32 -18891.140769  15697.145941  10050.958168   -617.329884
PJ02 -30861.684795  26011.604870  17194.728081     -3.526180
PJ03 -27070.324921  16176.169855 -23373.617577     -0.129661
PJ04 -24693.478377  33963.815071    540.195282     50.554919
PR01    672.240742  13944.548616  21360.506141     81.208937
PR02  13980.077239    407.769192  21398.826503    -22.665290
PR03  19767.509243 -13361.646807   9152.291844     97.393182
PR04  14806.716450 -19251.387407  -7781.206059    230.018420
PR05   1886.163462 -14976.443299 -20550.455948    129.260902
PR07 -19709.126081  13906.758657  -8176.140403     79.206621
PR08 -14384.449503  19426.504678   8165.864351    -74.922680
PR09 -12927.362318 -13173.943498  17582.176615    178.474754
PR11  -2768.453232  19401.600600  16345.250675     29.424252
PR12   7327.482794  24358.659781  -1791.004112     38.459137
PR13  12289.336169  15664.254682 -15960.976848    -45.829626
PR14  10234.432530  -4696.025269 -22879.040946     26.305026
PR15   2156.138186 -20401.976939 -15139.264989     80.883853
PR16  -7336.598567 -24361.670695   1564.416614     24.443642
PR17  21449.203935   -424.753776  13778.413687     73.946266
PR18   7998.288983  -8336.644695  22760.415198    134.894006
PR19  -7641.079285 -12372.972731  20952.448174   -271.426878
PR20 -23158.688886  -9734.104413   4285.919301   -110.600034
PR21 -21440.699178    216.291184 -13834.580384    -89.043587
PR22  -7131.421416   8981.634618 -22758.401814    115.110762
PR24  23732.101991   8594.700747  -3644.835993    -49.996638
PR25 -21433.695222   -178.723038 -13837.304226    -26.232217
PR26 -14956.386268  19455.724357   7033.637012    -27.343087
EOF
